1 42873U 17042BA  21231.52952341  .00008016  00000-0  16070-3 0  9990
2 42873  96.8449  81.4512 0008647 174.7790 185.3553 15.46915846230157
1 42873U 17042BA  21232.30577463  .00007926  00000-0  15885-3 0  9997
2 42873  96.8446  82.1849 0008738 172.2347 187.9041 15.46925661230276
1 42873U 17042BA  21232.56452444  .00007878  00000-0  15788-3 0  9994
2 42873  96.8446  82.4295 0008767 171.2084 188.9322 15.46927678230311
1 42873U 17042BA  21233.53483038  .00006864  00000-0  13772-3 0  9990
2 42873  96.8440  83.3466 0008876 167.7355 192.4114 15.46938324230462
1 42873U 17042BA  21233.85826349  .00007699  00000-0  15425-3 0  9995
2 42873  96.8439  83.6523 0008924 166.5753 193.5737 15.46944125230515
1 42873U 17042BA  21234.31106917  .00005929  00000-0  11916-3 0  9994
2 42873  96.8439  84.0804 0008979 164.9971 195.1548 15.46946807230580
1 42873U 17042BA  21234.82855957  .00005843  00000-0  11742-3 0  9997
2 42873  96.8438  84.5696 0009029 163.2512 196.9040 15.46952654230665
1 42873U 17042BA  21235.34604812  .00005155  00000-0  10377-3 0  9996
2 42873  96.8437  85.0587 0009097 161.5443 198.6140 15.46957095230741
1 42873U 17042BA  21236.57507667  .00005439  00000-0  10936-3 0  9998
2 42873  96.8436  86.2205 0009213 157.3375 202.8284 15.46970242230934
1 42873U 17042BA  21236.83381718  .00005690  00000-0  11431-3 0  9994
2 42873  96.8435  86.4651 0009234 156.4314 203.7362 15.46974118230973
1 42873U 17042BA  21237.54534512  .00016048  00000-0  31872-3 0  9995
2 42873  96.8434  87.1378 0009274 154.1017 206.0701 15.47007177231084
1 42873U 17042BA  21237.67471237  .00017039  00000-0  33820-3 0  9999
2 42873  96.8435  87.2601 0009287 153.6431 206.5295 15.47012926231107
1 42873U 17042BA  21238.51559216  .00013183  00000-0  26191-3 0  9996
2 42873  96.8436  88.0551 0009374 150.9142 209.2633 15.47037568231236
1 42873U 17042BA  21239.03305250  .00012732  00000-0  25293-3 0  9992
2 42873  96.8436  88.5444 0009417 149.2417 210.9388 15.47048078231319
1 42873U 17042BA  21239.55051089  .00011101  00000-0  22073-3 0  9999
2 42873  96.8438  89.0337 0009474 147.5330 212.6506 15.47053754231392
1 42873U 17042BA  21239.80923903  .00011843  00000-0  23532-3 0  9994
2 42873  96.8438  89.2784 0009508 146.6375 213.5477 15.47057697231439
1 42873U 17042BA  21240.32669138  .00017185  00000-0  34032-3 0  9992
2 42873  96.8439  89.7678 0009593 144.8570 215.3316 15.47074338231510
1 42873U 17042BA  21240.84413968  .00014795  00000-0  29319-3 0  9993
2 42873  96.8437  90.2569 0009633 143.2354 216.9560 15.47084102231598
1 42873U 17042BA  21241.10286199  .00016768  00000-0  33190-3 0  9991
2 42873  96.8438  90.5016 0009650 142.4147 217.7780 15.47093457231630
1 42873U 17042BA  21241.55562353  .00018219  00000-0  36022-3 0  9999
2 42873  96.8438  90.9298 0009692 140.8625 219.3329 15.47108642231703
1 42873U 17042BA  21241.81434319  .00017807  00000-0  35205-3 0  9992
2 42873  96.8438  91.1745 0009720 140.0627 220.1341 15.47114157231745
1 42873U 17042BA  21242.52582089  .00019525  00000-0  38563-3 0  9998
2 42873  96.8437  91.8474 0009826 137.6196 222.5816 15.47125266231858
1 42873U 17042BA  21242.84921778  .00012218  00000-0  24213-3 0  9994
2 42873  96.8438  92.1532 0009851 136.6251 223.5777 15.47123528231909
1 42873U 17042BA  21243.04325487  .00012066  00000-0  23912-3 0  9998
2 42873  96.8440  92.3368 0009855 135.9952 224.2085 15.47127371231938
1 42873U 17042BA  21243.56068769  .00011498  00000-0  22789-3 0  9991
2 42873  96.8440  92.8261 0009907 134.3221 225.8844 15.47132711232019
1 42873U 17042BA  21244.53085763  .00012233  00000-0  24212-3 0  9993
2 42873  96.8438  93.7435 0009968 131.2518 228.9593 15.47159828232160
1 42873U 17042BA  21245.11294971  .00015724  00000-0  31038-3 0  9993
2 42873  96.8438  94.2939 0010001 129.3900 230.8239 15.47182277232251
1 42873U 17042BA  21245.56568420  .00012899  00000-0  25490-3 0  9990
2 42873  96.8437  94.7221 0010035 127.8981 232.3180 15.47192044232321
1 42873U 17042BA  21246.14776627  .00012014  00000-0  23741-3 0  9991
2 42873  96.8436  95.2725 0010082 126.0751 234.1436 15.47206530232413
1 42873U 17042BA  21246.53581816  .00014180  00000-0  27974-3 0  9996
2 42873  96.8433  95.6394 0010082 124.6725 235.5478 15.47218968232476
1 42873U 17042BA  21247.50593330  .00015334  00000-0  30202-3 0  9998
2 42873  96.8429  96.5567 0010105 121.7463 238.4774 15.47249446232629
1 42873U 17042BA  21247.82930024  .00016331  00000-0  32139-3 0  9997
2 42873  96.8427  96.8624 0010121 120.6672 239.5578 15.47261390232673
1 42873U 17042BA  21248.54070065  .00016059  00000-0  31581-3 0  9994
2 42873  96.8426  97.5350 0010151 118.4409 241.7866 15.47284532232782
1 42873U 17042BA  21249.57544599  .00016120  00000-0  31664-3 0  9997
2 42873  96.8422  98.5135 0010160 115.3999 244.8305 15.47317275232941
1 42873U 17042BA  21249.83412933  .00014770  00000-0  29025-3 0  9999
2 42873  96.8420  98.7581 0010158 114.4949 245.7363 15.47323016232986
1 42873U 17042BA  21250.41616209  .00014349  00000-0  28186-3 0  9996
2 42873  96.8420  99.3083 0010204 112.6868 247.5463 15.47339607233077
1 42873U 17042BA  21250.54550167  .00015459  00000-0  30345-3 0  9993
2 42873  96.8419  99.4306 0010208 112.3260 247.9074 15.47345092233090
1 42873U 17042BA  21250.86884943  .00016315  00000-0  32003-3 0  9995
2 42873  96.8418  99.7364 0010219 111.3494 248.8849 15.47354970233147
1 42873U 17042BA  21251.38620079  .00020330  00000-0  39790-3 0  9993
2 42873  96.8417 100.2256 0010229 109.7978 250.4377 15.47376573233220
1 42873U 17042BA  21251.83887818  .00018331  00000-0  35884-3 0  9997
2 42873  96.8416 100.6538 0010234 108.3756 251.8609 15.47390268233298
1 42873U 17042BA  21252.09754901  .00016918  00000-0  33126-3 0  9998
2 42873  96.8416 100.8984 0010238 107.5646 252.6725 15.47398257233337
1 42873U 17042BA  21253.00288460  .00016698  00000-0  32663-3 0  9992
2 42873  96.8415 101.7549 0010305 104.8845 255.3548 15.47429376233474
1 42873U 17042BA  21253.45554544  .00017066  00000-0  33359-3 0  9993
2 42873  96.8416 102.1829 0010326 103.5937 256.6465 15.47445602233542
1 42873U 17042BA  21253.84353685  .00016825  00000-0  32877-3 0  9995
2 42873  96.8416 102.5500 0010332 102.3445 257.8964 15.47458598233602
1 42873U 17042BA  21254.10219565  .00018378  00000-0  35876-3 0  9990
2 42873  96.8417 102.7947 0010323 101.5321 258.7090 15.47470028233640
1 42873U 17042BA  21254.55484430  .00019415  00000-0  37861-3 0  9993
2 42873  96.8417 103.2230 0010353 100.1337 260.1083 15.47488405233711
1 42873U 17042BA  21254.74883507  .00020318  00000-0  39600-3 0  9999
2 42873  96.8418 103.4065 0010364  99.4897 260.7527 15.47496353233746
1 42873U 17042BA  21255.20147639  .00017874  00000-0  34847-3 0  9991
2 42873  96.8418 103.8348 0010382  98.1114 262.1316 15.47511577233818
1 42873U 17042BA  21255.52478892  .00016933  00000-0  33013-3 0  9993
2 42873  96.8418 104.1406 0010385  97.0792 263.1641 15.47522776233860
1 42873U 17042BA  21255.84809891  .00017566  00000-0  34223-3 0  9992
2 42873  96.8418 104.4465 0010380  96.1271 264.1163 15.47534701233912
1 42873U 17042BA  21256.43005074  .00017408  00000-0  33893-3 0  9996
2 42873  96.8420 104.9971 0010378  94.3872 265.8566 15.47555598234009
1 42873U 17042BA  21256.55937225  .00018570  00000-0  36132-3 0  9991
2 42873  96.8420 105.1195 0010386  93.9700 266.2739 15.47561953234025
1 42873U 17042BA  21256.88267431  .00018568  00000-0  36113-3 0  9998
2 42873  96.8419 105.4254 0010404  92.9546 267.2896 15.47573387234074
1 42873U 17042BA  21257.46461256  .00016690  00000-0  32463-3 0  9992
2 42873  96.8419 105.9759 0010417  91.1146 269.1299 15.47592150234167
1 42873U 17042BA  21257.85256777  .00014956  00000-0  29104-3 0  9996
2 42873  96.8419 106.3429 0010404  89.9467 270.2976 15.47602084234223
1 42873U 17042BA  21258.56381112  .00014736  00000-0  28656-3 0  9994
2 42873  96.8418 107.0158 0010388  87.7359 272.5082 15.47623943234338
1 42873U 17042BA  21258.82244273  .00014631  00000-0  28447-3 0  9991
2 42873  96.8417 107.2605 0010393  86.9004 273.3437 15.47630958234371
1 42873U 17042BA  21259.53367382  .00012689  00000-0  24682-3 0  9995
2 42873  96.8416 107.9333 0010382  84.7433 275.5003 15.47649232234485
1 42873U 17042BA  21259.72764471  .00012357  00000-0  24039-3 0  9994
2 42873  96.8415 108.1168 0010370  84.1624 276.0809 15.47653169234514
1 42873U 17042BA  21260.37421012  .00011735  00000-0  22828-3 0  9991
2 42873  96.8413 108.7285 0010330  82.1626 278.0798 15.47667256234616
1 42873U 17042BA  21260.82680207  .00013513  00000-0  26245-3 0  9997
2 42873  96.8411 109.1566 0010324  80.6803 279.5616 15.47679694234685
1 42873U 17042BA  21260.95611345  .00013845  00000-0  26881-3 0  9992
2 42873  96.8410 109.2789 0010315  80.2491 279.9925 15.47683373234700
1 42873U 17042BA  21261.53800973  .00014040  00000-0  27241-3 0  9993
2 42873  96.8409 109.8294 0010291  78.4665 281.7742 15.47700774234792
1 42873U 17042BA  21261.86128257  .00013262  00000-0  25736-3 0  9999
2 42873  96.8408 110.1352 0010268  77.4277 282.8122 15.47709187234840
1 42873U 17042BA  21262.18455307  .00010507  00000-0  20424-3 0  9992
2 42873  96.8406 110.4410 0010238  76.4376 283.8016 15.47716805234895
1 42873U 17042BA  21262.57247581  .00009569  00000-0  18610-3 0  9998
2 42873  96.8405 110.8079 0010222  75.2687 284.9697 15.47726886234958
1 42873U 17042BA  21262.83108955  .00010782  00000-0  20940-3 0  9996
2 42873  96.8404 111.0525 0010218  74.4020 285.8359 15.47734656234996
1 42873U 17042BA  21263.08970241  .00010125  00000-0  19671-3 0  9999
2 42873  96.8403 111.2971 0010206  73.6281 286.6092 15.47740711235037
1 42873U 17042BA  21264.12414589  .00011870  00000-0  23012-3 0  9995
2 42873  96.8400 112.2756 0010149  70.5481 289.6867 15.47763542235197
1 42873U 17042BA  21264.83531715  .00012467  00000-0  24148-3 0  9998
2 42873  96.8398 112.9484 0010111  68.2962 291.9365 15.47779236235304
1 42873U 17042BA  21265.41717755  .00016844  00000-0  32531-3 0  9991
2 42873  96.8398 113.4989 0010072  66.4936 293.7373 15.47799635235390
